start=new Date('2022-06-22T00:00:00.000Z').valueOf();
sats=[{"LAUNCH_DATE":"2022-04-21","FILE":"3499203","ECCENTRICITY":"0.00013170","OBJECT_ID":"2022-041AN","TLE_LINE1":"1 52297U 22041AN  22172.91667824 -.00720253  00000-0 -14508-1 0  9991","CLASSIFICATION_TYPE":"U","EPOCH":"2022-06-21T22:00:00.999936","MEAN_ANOMALY":"47.1242","RCS_SIZE":"LARGE","OBJECT_TYPE":"PAYLOAD","RA_OF_ASC_NODE":"73.4909","INCLINATION":"53.2175","SEMIMAJOR_AXIS":"6799.924","NORAD_CAT_ID":"52297","PERIOD":"93.007","ELEMENT_SET_NO":"999","MEAN_MOTION":"15.48269982","TLE_LINE2":"2 52297  53.2175  73.4909 0001317  57.2520  47.1242 15.48269982  1303","OBJECT_NAME":"STARLINK-3758","BSTAR":"-0.01450800000000","DECAY_DATE":null,"PERIAPSIS":"420.893","APOAPSIS":"422.684","TIME_SYSTEM":"UTC","CENTER_NAME":"EARTH","GP_ID":"206584934","MEAN_MOTION_DOT":"-0.00720253","REV_AT_EPOCH":"130","MEAN_MOTION_DDOT":"0.0000000000000","REF_FRAME":"TEME","MEAN_ELEMENT_THEORY":"SGP4","EPHEMERIS_TYPE":"0","SITE":"AFETR","COUNTRY_CODE":"US","ARG_OF_PERICENTER":"57.2520"},{"FILE":"3499203","LAUNCH_DATE":"2022-04-21","OBJECT_ID":"2022-041AP","ECCENTRICITY":"0.00012800","TLE_LINE1":"1 52298U 22041AP  22172.91667824 -.00720181  00000-0 -13910-1 0  9998","CLASSIFICATION_TYPE":"U","EPOCH":"2022-06-21T22:00:00.999936","MEAN_ANOMALY":"46.4594","NORAD_CAT_ID":"52298","SEMIMAJOR_AXIS":"6796.444","RCS_SIZE":"LARGE","OBJECT_TYPE":"PAYLOAD","RA_OF_ASC_NODE":"73.5641","INCLINATION":"53.2175","ELEMENT_SET_NO":"999","PERIOD":"92.936","MEAN_MOTION":"15.49459264","TLE_LINE2":"2 52298  53.2175  73.5641 0001280  65.8428  46.4594 15.49459264  1306","DECAY_DATE":null,"PERIAPSIS":"417.439","APOAPSIS":"419.179","OBJECT_NAME":"STARLINK-3760","BSTAR":"-0.01391000000000","TIME_SYSTEM":"UTC","GP_ID":"206584398","CENTER_NAME":"EARTH","REF_FRAME":"TEME","MEAN_MOTION_DOT":"-0.00720181","REV_AT_EPOCH":"130","MEAN_MOTION_DDOT":"0.0000000000000","MEAN_ELEMENT_THEORY":"SGP4","EPHEMERIS_TYPE":"0","COUNTRY_CODE":"US","ARG_OF_PERICENTER":"65.8428","SITE":"AFETR"},{"DECAY_DATE":null,"PERIAPSIS":"418.600","APOAPSIS":"420.337","BSTAR":"-0.01410800000000","OBJECT_NAME":"STARLINK-3759","TIME_SYSTEM":"UTC","EPHEMERIS_TYPE":"0","MEAN_ELEMENT_THEORY":"SGP4","ARG_OF_PERICENTER":"62.5418","COUNTRY_CODE":"US","SITE":"AFETR","GP_ID":"206584834","CENTER_NAME":"EARTH","REF_FRAME":"TEME","MEAN_MOTION_DDOT":"0.0000000000000","MEAN_MOTION_DOT":"-0.00720245","REV_AT_EPOCH":"130","TLE_LINE1":"1 52299U 22041AQ  22172.91667824 -.00720245  00000-0 -14108-1 0  9990","CLASSIFICATION_TYPE":"U","FILE":"3499203","LAUNCH_DATE":"2022-04-21","ECCENTRICITY":"0.00012780","OBJECT_ID":"2022-041AQ","ELEMENT_SET_NO":"999","PERIOD":"92.959","MEAN_MOTION":"15.49062842","TLE_LINE2":"2 52299  53.2175  73.5401 0001278  62.5418  47.4882 15.49062842  1304","MEAN_ANOMALY":"47.4882","EPOCH":"2022-06-21T22:00:00.999936","NORAD_CAT_ID":"52299","SEMIMAJOR_AXIS":"6797.603","RA_OF_ASC_NODE":"73.5401","INCLINATION":"53.2175","OBJECT_TYPE":"PAYLOAD","RCS_SIZE":"LARGE"},{"TLE_LINE1":"1 52300U 22041AR  22172.91667824 -.00661829  00000-0 -12701-1 0  9992","CLASSIFICATION_TYPE":"U","FILE":"3499203","LAUNCH_DATE":"2022-04-21","OBJECT_ID":"2022-041AR","ECCENTRICITY":"0.00012150","ELEMENT_SET_NO":"999","PERIOD":"92.914","TLE_LINE2":"2 52300  53.2175  73.5865 0001215  79.1573  35.0645 15.49820646  1302","MEAN_MOTION":"15.49820646","MEAN_ANOMALY":"35.0645","EPOCH":"2022-06-21T22:00:00.999936","SEMIMAJOR_AXIS":"6795.387","NORAD_CAT_ID":"52300","INCLINATION":"53.2175","RA_OF_ASC_NODE":"73.5865","OBJECT_TYPE":"PAYLOAD","RCS_SIZE":"LARGE","DECAY_DATE":null,"PERIAPSIS":"416.427","APOAPSIS":"418.078","BSTAR":"-0.01270100000000","OBJECT_NAME":"STARLINK-3769","TIME_SYSTEM":"UTC","EPHEMERIS_TYPE":"0","MEAN_ELEMENT_THEORY":"SGP4","ARG_OF_PERICENTER":"79.1573","COUNTRY_CODE":"US","SITE":"AFETR","GP_ID":"206584306","CENTER_NAME":"EARTH","REF_FRAME":"TEME","MEAN_MOTION_DDOT":"0.0000000000000","MEAN_MOTION_DOT":"-0.00661829","REV_AT_EPOCH":"130"},{"REV_AT_EPOCH":"130","MEAN_MOTION_DOT":"-0.00720100","MEAN_MOTION_DDOT":"0.0000000000000","REF_FRAME":"TEME","CENTER_NAME":"EARTH","GP_ID":"206585000","SITE":"AFETR","COUNTRY_CODE":"US","ARG_OF_PERICENTER":"58.5686","MEAN_ELEMENT_THEORY":"SGP4","EPHEMERIS_TYPE":"0","TIME_SYSTEM":"UTC","OBJECT_NAME":"STARLINK-3768","BSTAR":"-0.01420400000000","APOAPSIS":"420.940","DECAY_DATE":null,"PERIAPSIS":"419.157","OBJECT_TYPE":"PAYLOAD","RCS_SIZE":"LARGE","RA_OF_ASC_NODE":"73.5278","INCLINATION":"53.2175","NORAD_CAT_ID":"52301","SEMIMAJOR_AXIS":"6798.183","EPOCH":"2022-06-21T22:00:00.999936","MEAN_ANOMALY":"50.1866","MEAN_MOTION":"15.48864555","TLE_LINE2":"2 52301  53.2175  73.5278 0001312  58.5686  50.1866 15.48864555  1304","PERIOD":"92.971","ELEMENT_SET_NO":"999","OBJECT_ID":"2022-041AS","ECCENTRICITY":"0.00013120","LAUNCH_DATE":"2022-04-21","FILE":"3499203","CLASSIFICATION_TYPE":"U","TLE_LINE1":"1 52301U 22041AS  22172.91667824 -.00720100  00000-0 -14204-1 0  9991"},{"TIME_SYSTEM":"UTC","PERIAPSIS":"347.157","DECAY_DATE":null,"APOAPSIS":"352.154","BSTAR":"-0.00056798000000","OBJECT_NAME":"STARLINK-3564","REF_FRAME":"TEME","MEAN_MOTION_DDOT":"0.0000000000000","REV_AT_EPOCH":"130","MEAN_MOTION_DOT":"-0.00079745","GP_ID":"206584744","CENTER_NAME":"EARTH","ARG_OF_PERICENTER":"4.4629","COUNTRY_CODE":"US","SITE":"AFETR","EPHEMERIS_TYPE":"0","MEAN_ELEMENT_THEORY":"SGP4","OBJECT_ID":"2022-041AT","ECCENTRICITY":"0.00037140","FILE":"3499203","LAUNCH_DATE":"2022-04-21","CLASSIFICATION_TYPE":"U","TLE_LINE1":"1 52302U 22041AT  22172.91667824 -.00079745  00000-0 -56798-3 0  9990","NORAD_CAT_ID":"52302","SEMIMAJOR_AXIS":"6727.791","RA_OF_ASC_NODE":"71.7637","INCLINATION":"53.2147","RCS_SIZE":"LARGE","OBJECT_TYPE":"PAYLOAD","MEAN_ANOMALY":"242.6868","EPOCH":"2022-06-21T22:00:00.999936","MEAN_MOTION":"15.73236672","TLE_LINE2":"2 52302  53.2147  71.7637 0003714   4.4629 242.6868 15.73236672  1309","ELEMENT_SET_NO":"999","PERIOD":"91.531"},{"MEAN_MOTION_DDOT":"0.0000000000000","REV_AT_EPOCH":"130","MEAN_MOTION_DOT":"-0.00722945","REF_FRAME":"TEME","CENTER_NAME":"EARTH","GP_ID":"206584488","SITE":"AFETR","ARG_OF_PERICENTER":"54.4861","COUNTRY_CODE":"US","EPHEMERIS_TYPE":"0","MEAN_ELEMENT_THEORY":"SGP4","TIME_SYSTEM":"UTC","BSTAR":"-0.01386800000000","OBJECT_NAME":"STARLINK-3742","APOAPSIS":"418.719","DECAY_DATE":null,"PERIAPSIS":"416.727","INCLINATION":"53.2175","RA_OF_ASC_NODE":"73.5762","RCS_SIZE":"LARGE","OBJECT_TYPE":"PAYLOAD","NORAD_CAT_ID":"52303","SEMIMAJOR_AXIS":"6795.858","MEAN_ANOMALY":"58.8124","EPOCH":"2022-06-21T22:00:00.999936","MEAN_MOTION":"15.49659696","TLE_LINE2":"2 52303  53.2175  73.5762 0001466  54.4861  58.8124 15.49659696  1305","PERIOD":"92.924","ELEMENT_SET_NO":"999","ECCENTRICITY":"0.00014660","OBJECT_ID":"2022-041AU","LAUNCH_DATE":"2022-04-21","FILE":"3499203","CLASSIFICATION_TYPE":"U","TLE_LINE1":"1 52303U 22041AU  22172.91667824 -.00722945  00000-0 -13868-1 0  9997"},{"MEAN_ANOMALY":"242.1206","EPOCH":"2022-06-21T22:00:00.999936","RA_OF_ASC_NODE":"71.7628","INCLINATION":"53.2149","RCS_SIZE":"LARGE","OBJECT_TYPE":"PAYLOAD","SEMIMAJOR_AXIS":"6727.857","NORAD_CAT_ID":"52304","PERIOD":"91.532","ELEMENT_SET_NO":"999","MEAN_MOTION":"15.73213249","TLE_LINE2":"2 52304  53.2149  71.7628 0003615   5.6348 242.1206 15.73213249  1300","LAUNCH_DATE":"2022-04-21","FILE":"3499203","ECCENTRICITY":"0.00036150","OBJECT_ID":"2022-041AV","TLE_LINE1":"1 52304U 22041AV  22172.91667824 -.00059683  00000-0 -42340-3 0  9999","CLASSIFICATION_TYPE":"U","CENTER_NAME":"EARTH","GP_ID":"206584652","MEAN_MOTION_DDOT":"0.0000000000000","REV_AT_EPOCH":"130","MEAN_MOTION_DOT":"-0.00059683","REF_FRAME":"TEME","EPHEMERIS_TYPE":"0","MEAN_ELEMENT_THEORY":"SGP4","SITE":"AFETR","ARG_OF_PERICENTER":"5.6348","COUNTRY_CODE":"US","BSTAR":"-0.00042340000000","OBJECT_NAME":"STARLINK-3744","PERIAPSIS":"347.290","DECAY_DATE":null,"APOAPSIS":"352.155","TIME_SYSTEM":"UTC"},{"EPHEMERIS_TYPE":"0","MEAN_ELEMENT_THEORY":"SGP4","ARG_OF_PERICENTER":"80.8603","COUNTRY_CODE":"US","SITE":"AFETR","GP_ID":"206584935","CENTER_NAME":"EARTH","REF_FRAME":"TEME","MEAN_MOTION_DDOT":"0.0000000000000","MEAN_MOTION_DOT":"-0.00552907","REV_AT_EPOCH":"130","DECAY_DATE":null,"APOAPSIS":"417.964","PERIAPSIS":"416.191","BSTAR":"-0.01044100000000","OBJECT_NAME":"STARLINK-3724","TIME_SYSTEM":"UTC","ELEMENT_SET_NO":"999","PERIOD":"92.910","MEAN_MOTION":"15.49880383","TLE_LINE2":"2 52305  53.2175  73.5942 0001305  80.8603  34.2391 15.49880383  1309","MEAN_ANOMALY":"34.2391","EPOCH":"2022-06-21T22:00:00.999936","NORAD_CAT_ID":"52305","SEMIMAJOR_AXIS":"6795.213","RA_OF_ASC_NODE":"73.5942","INCLINATION":"53.2175","RCS_SIZE":"LARGE","OBJECT_TYPE":"PAYLOAD","TLE_LINE1":"1 52305U 22041AW  22172.91667824 -.00552907  00000-0 -10441-1 0  9992","CLASSIFICATION_TYPE":"U","FILE":"3499203","LAUNCH_DATE":"2022-04-21","OBJECT_ID":"2022-041AW","ECCENTRICITY":"0.00013050"},{"SITE":"AFETR","ARG_OF_PERICENTER":"11.8837","COUNTRY_CODE":"US","EPHEMERIS_TYPE":"0","MEAN_ELEMENT_THEORY":"SGP4","MEAN_MOTION_DDOT":"0.0000000000000","MEAN_MOTION_DOT":"-0.00125889","REV_AT_EPOCH":"130","REF_FRAME":"TEME","CENTER_NAME":"EARTH","GP_ID":"206584399","TIME_SYSTEM":"UTC","BSTAR":"-0.00090309000000","OBJECT_NAME":"STARLINK-3747","DECAY_DATE":null,"APOAPSIS":"352.106","PERIAPSIS":"347.055","TLE_LINE2":"2 52306  53.2159  71.7596 0003754  11.8837 236.4140 15.73262986  1308","MEAN_MOTION":"15.73262986","PERIOD":"91.530","ELEMENT_SET_NO":"999","RA_OF_ASC_NODE":"71.7596","INCLINATION":"53.2159","OBJECT_TYPE":"PAYLOAD","RCS_SIZE":"LARGE","SEMIMAJOR_AXIS":"6727.716","NORAD_CAT_ID":"52306","MEAN_ANOMALY":"236.4140","EPOCH":"2022-06-21T22:00:00.999936","CLASSIFICATION_TYPE":"U","TLE_LINE1":"1 52306U 22041AX  22172.91667824 -.00125889  00000-0 -90309-3 0  9991","ECCENTRICITY":"0.00037540","OBJECT_ID":"2022-041AX","LAUNCH_DATE":"2022-04-21","FILE":"3499203"}];
